{"epoch":1784838743,"count":18315,"objects":[{"id":"37849","name":"NPP","type":"PAYLOAD","l1":"1 37849U 11061A   26204.57029696  .00000042  00000-0  40751-4 0  9995","l2":"2 37849  98.7956 145.1993 0001187 179.7398 180.3779 14.19523877763604"},{"id":"37875","name":"YAOGAN 12","type":"PAYLOAD","l1":"1 37875U 11066B   26204.63995168  .00007592  00000-0  28900-3 0  9990","l2":"2 37875  97.1129 241.4978 0010930  96.4287 263.8197 15.26953864817602"},{"id":"38251","name":"BEIDOU 13","type":"PAYLOAD","l1":"1 38251U 12018B   26204.63422150 -.00000095  00000-0  00000-0 0  9993","l2":"2 38251  55.6237 302.8566 0012306 271.9994  87.8924  1.86229554 96625"},{"id":"38338","name":"KOMPSAT 3","type":"PAYLOAD","l1":"1 38338U 12025B   26204.57425229  .00000386  00000-0  85888-4 0  9993","l2":"2 38338  98.1190 161.4113 0005670  15.6357 344.5019 14.62234581756669"},{"id":"38340","name":"HORYU 2","type":"PAYLOAD","l1":"1 38340U 12025D   26204.34027862  .00002895  00000-0  29689-3 0  9995","l2":"2 38340  98.2215 338.7688 0009162  69.1836 291.0362 14.91261842754110"},{"id":"38761","name":"CSSWE","type":"PAYLOAD","l1":"1 38761U 12048D   26204.33673225  .00033463  00000-0  65612-3 0  9997","l2":"2 38761  64.6638 330.8654 0039365 162.4697 197.7811 15.46351152121988"},{"id":"38763","name":"CP5","type":"PAYLOAD","l1":"1 38763U 12048F   26204.52020737  .00015209  00000-0  51173-3 0  9999","l2":"2 38763  64.6453  32.4486 0072495 164.1713 196.1707 15.28459736122314"},{"id":"38771","name":"METOP-B","type":"PAYLOAD","l1":"1 38771U 12049A   26204.58166650  .00000070  00000-0  51791-4 0  9997","l2":"2 38771  98.6484 255.3509 0001440 213.3063 146.8024 14.21448081718434"},{"id":"38860","name":"SJ-9A","type":"PAYLOAD","l1":"1 38860U 12056A   26204.53805716  .00000936  00000-0  11372-3 0  9993","l2":"2 38860  97.6736 175.1817 0026629 135.1588 225.1786 14.85541617704982"},{"id":"39059","name":"COSMOS 2484","type":"PAYLOAD","l1":"1 39059U 13001C   26204.60961179 -.00000064  00000-0 -53115-3 0  9994","l2":"2 39059  82.5006 199.2476 0025322 316.8565  43.0530 12.42940329613084"},{"id":"39086","name":"SARAL","type":"PAYLOAD","l1":"1 39086U 13009A   26204.56176852  .00000065  00000-0  39990-4 0  9998","l2":"2 39086  98.5560  30.6695 0002179 148.0723 212.0594 14.32897287700814"},{"id":"39087","name":"AAUSAT3","type":"PAYLOAD","l1":"1 39087U 13009B   26203.96629784  .00000519  00000-0  17843-3 0  9995","l2":"2 39087  98.3714  26.9485 0012666 103.4647 256.7954 14.39978734702328"},{"id":"39090","name":"STRAND 1","type":"PAYLOAD","l1":"1 39090U 13009E   26204.05022801  .00000241  00000-0  95167-4 0  9995","l2":"2 39090  98.3941  23.4053 0009730 120.1275 240.0877 14.37182344702218"},{"id":"39091","name":"BRITE-A TUGSAT-1","type":"PAYLOAD","l1":"1 39091U 13009F   26204.42694107  .00000152  00000-0  66177-4 0  9991","l2":"2 39091  98.4015  22.9694 0011164 128.0957 232.1238 14.36554972702251"},{"id":"39092","name":"BRITE-U UNIBRITE","type":"PAYLOAD","l1":"1 39092U 13009G   26204.44244462  .00000162  00000-0  69981-4 0  9996","l2":"2 39092  98.4054  23.1042 0010127 124.4956 235.7188 14.36426178702194"},{"id":"39133","name":"AIST 2","type":"PAYLOAD","l1":"1 39133U 13015D   26204.61754154  .00006333  00000-0  24753-3 0  9995","l2":"2 39133  64.8684 138.1767 0016585 248.6649 111.2712 15.26633587729463"},{"id":"39150","name":"GAOFEN 1","type":"PAYLOAD","l1":"1 39150U 13018A   26204.58985153  .00000853  00000-0  12940-3 0  9994","l2":"2 39150  97.9079 275.9145 0017782 144.8647 215.3739 14.76526973713611"},{"id":"39151","name":"NEE 01 PEGASUS","type":"PAYLOAD","l1":"1 39151U 13018B   26203.83564981  .00002090  00000-0  20251-3 0  9993","l2":"2 39151  98.1267 349.1763 0013461  51.2724 308.9696 14.93816948716023"},{"id":"39152","name":"TURKSAT 3U","type":"PAYLOAD","l1":"1 39152U 13018C   26204.25383361  .00003000  00000-0  26820-3 0  9992","l2":"2 39152  97.7919 294.9337 0011056 346.1461  13.9456 14.96618023716483"},{"id":"39153","name":"CUBEBUG 1","type":"PAYLOAD","l1":"1 39153U 13018D   26204.58687354  .00003130  00000-0  27376-3 0  9999","l2":"2 39153  98.1695   6.1605 0011734  34.5205 325.6775 14.97490006716519"},{"id":"39159","name":"PROBA V","type":"PAYLOAD","l1":"1 39159U 13021A   26204.38597084  .00000056  00000-0  42412-4 0  9990","l2":"2 39159  98.3612 181.2104 0004919  40.4967 319.6578 14.23604538686261"},{"id":"39161","name":"ESTCUBE 1","type":"PAYLOAD","l1":"1 39161U 13021C   26204.12743433  .00001267  00000-0  16808-3 0  9990","l2":"2 39161  97.7273 257.0483 0006720 254.0598 105.9875 14.81493197710341"},{"id":"39227","name":"KOMPSAT 5","type":"PAYLOAD","l1":"1 39227U 13042A   26204.61267990  .00001100  00000-0  82907-4 0  9999","l2":"2 39227  97.6202  30.8013 0004342  32.0112 328.1378 15.04505382709335"},{"id":"39249","name":"GONETS M 05","type":"PAYLOAD","l1":"1 39249U 13048A   26204.57997536 -.00000037  00000-0 -34006-3 0  9996","l2":"2 39249  82.4853 320.6951 0017599 132.4240 227.8331 12.42892682583402"},{"id":"39251","name":"GONETS M 07","type":"PAYLOAD","l1":"1 39251U 13048C   26204.54227117  .00000003  00000-0 -53291-4 0  9997","l2":"2 39251  82.4921 323.6597 0018390 133.5884 226.6725 12.42915657583352"},{"id":"39260","name":"FENGYUN 3C","type":"PAYLOAD","l1":"1 39260U 13052A   26204.58191921  .00000064  00000-0  53476-4 0  9990","l2":"2 39260  98.5007 176.7908 0013444 279.8450  80.1207 14.15762211663711"},{"id":"39265","name":"CASSIOPE","type":"PAYLOAD","l1":"1 39265U 13055A   26204.53663247  .00020243 -46619-6  21696-3 0  9990","l2":"2 39265  80.9135  22.4706 0281400 299.5475  57.7972 15.27720645673215"},{"id":"39416","name":"APRIZESAT 7","type":"PAYLOAD","l1":"1 39416U 13066A   26204.31209186  .00000967  00000-0  10065-3 0  9990","l2":"2 39416  97.7725 157.0178 0037388  91.4811 269.0691 14.91633577686610"},{"id":"39417","name":"ZACUBE","type":"PAYLOAD","l1":"1 39417U 13066B   26204.33245206  .00003415  00000-0  26445-3 0  9996","l2":"2 39417  97.7990 166.8439 0044074 129.2358 231.2791 15.01362379686151"},{"id":"39425","name":"APRIZESAT 8","type":"PAYLOAD","l1":"1 39425U 13066K   26204.32744963  .00000715  00000-0  83114-4 0  9995","l2":"2 39425  97.8232 151.2954 0046178 165.1340 195.1247 14.87706025685041"}]}